{
  "type": "FeatureCollection",
  "name": "DANANG_CORE_URBAN_BOUNDARY",
  "crs": {
    "type": "name",
    "properties": {
      "name": "urn:ogc:def:crs:OGC:1.3:CRS84"
    }
  },
  "features": [
    {
      "type": "Feature",
      "properties": {
        "zone_id": "DANANG_CORE",
        "name": "Vùng Đô thị Trung tâm Đà Nẵng",
        "description": "Khu vực đô thị lõi gồm 6 quận: Hải Châu, Thanh Khê, Sơn Trà, Ngũ Hành Sơn, Cẩm Lệ, Liên Chiểu và huyện Hòa Vang",
        "min_lon": 107.90,
        "min_lat": 15.90,
        "max_lon": 108.35,
        "max_lat": 16.25
      },
      "geometry": {
        "type": "MultiPolygon",
        "coordinates": [
          [
            [
              [108.080, 16.220],
              [108.130, 16.210],
              [108.170, 16.160],
              [108.230, 16.140],
              [108.290, 16.120],
              [108.320, 16.100],
              [108.310, 16.050],
              [108.270, 16.010],
              [108.280, 15.930],
              [108.230, 15.910],
              [108.180, 15.920],
              [108.120, 15.900],
              [108.020, 15.910],
              [107.940, 15.950],
              [107.910, 16.010],
              [107.930, 16.080],
              [107.970, 16.150],
              [108.020, 16.200],
              [108.080, 16.220]
            ]
          ]
        ]
      }
    }
  ]
}
